{
  "norad_id": 59134,
  "name": "JACKAL X-1L-002",
  "history": [
    {
      "epoch": "2026-03-28T15:27:28.484352Z",
      "apogee_km": 441.99099512267276,
      "perigee_km": 430.5019445924927,
      "latitude_deg": 6.288875055802364e-05,
      "longitude_deg": 172.50603718936662,
      "height_km": 443.5951178644291,
      "semi_major_axis_km": 6814.383469857583,
      "eccentricity": 0.000843,
      "inclination_deg": 97.5446,
      "raan_deg": 230.4363,
      "arg_perigee_deg": 137.5762,
      "mean_anomaly_deg": 222.6139,
      "mean_motion_rev_day": 15.43344605
    },
    {
      "epoch": "2026-03-28T23:14:17.665728Z",
      "apogee_km": 441.94824940338003,
      "perigee_km": 430.4402068253403,
      "latitude_deg": -6.19033032758786e-05,
      "longitude_deg": 55.817504375522184,
      "height_km": 443.4710106045996,
      "semi_major_axis_km": 6814.33122811436,
      "eccentricity": 0.0008444,
      "inclination_deg": 97.5445,
      "raan_deg": 230.7722,
      "arg_perigee_deg": 136.4284,
      "mean_anomaly_deg": 223.7631,
      "mean_motion_rev_day": 15.43362353
    },
    {
      "epoch": "2026-03-30T04:48:09.351936Z",
      "apogee_km": 441.7424668483409,
      "perigee_km": 430.2197930905613,
      "latitude_deg": 3.12672455723775e-05,
      "longitude_deg": -27.585131378895937,
      "height_km": 442.9494698131117,
      "semi_major_axis_km": 6814.118129969451,
      "eccentricity": 0.0008455,
      "inclination_deg": 97.5448,
      "raan_deg": 232.0491,
      "arg_perigee_deg": 132.0855,
      "mean_anomaly_deg": 228.1113,
      "mean_motion_rev_day": 15.43434752
    },
    {
      "epoch": "2026-03-30T04:48:09.352800Z",
      "apogee_km": 441.74266832612557,
      "perigee_km": 430.2195857262368,
      "latitude_deg": 2.8718621142490715e-05,
      "longitude_deg": -27.585034653068224,
      "height_km": 442.94960391404487,
      "semi_major_axis_km": 6814.11812702618,
      "eccentricity": 0.00084553,
      "inclination_deg": 97.5448,
      "raan_deg": 232.0492,
      "arg_perigee_deg": 132.0855,
      "mean_anomaly_deg": 228.1113,
      "mean_motion_rev_day": 15.43434753
    },
    {
      "epoch": "2026-03-30T09:28:13.932480Z",
      "apogee_km": 441.6941420803114,
      "perigee_km": 430.20245978370076,
      "latitude_deg": -1.613202400773209e-05,
      "longitude_deg": -97.59441595538816,
      "height_km": 442.8702360141918,
      "semi_major_axis_km": 6814.085300932005,
      "eccentricity": 0.00084323,
      "inclination_deg": 97.545,
      "raan_deg": 232.2506,
      "arg_perigee_deg": 131.6042,
      "mean_anomaly_deg": 228.5929,
      "mean_motion_rev_day": 15.43445906
    },
    {
      "epoch": "2026-03-30T20:21:44.304480Z",
      "apogee_km": 441.6402112099295,
      "perigee_km": 430.13568404934904,
      "latitude_deg": 1.6918919965043587e-05,
      "longitude_deg": 99.05202111623514,
      "height_km": 442.71185082759433,
      "semi_major_axis_km": 6814.0249476296385,
      "eccentricity": 0.00084418,
      "inclination_deg": 97.5452,
      "raan_deg": 232.7209,
      "arg_perigee_deg": 130.2598,
      "mean_anomaly_deg": 229.9389,
      "mean_motion_rev_day": 15.43466412
    },
    {
      "epoch": "2026-03-31T21:15:25.985088Z",
      "apogee_km": 441.5557997646929,
      "perigee_km": 429.9435740728459,
      "latitude_deg": 3.0431257573465253e-05,
      "longitude_deg": 85.68105387796349,
      "height_km": 442.3231965099857,
      "semi_major_axis_km": 6813.88668691877,
      "eccentricity": 0.0008521,
      "inclination_deg": 97.5454,
      "raan_deg": 233.796,
      "arg_perigee_deg": 126.6765,
      "mean_anomaly_deg": 233.5267,
      "mean_motion_rev_day": 15.4351339
    },
    {
      "epoch": "2026-04-01T15:55:40.176480Z",
      "apogee_km": 441.42857732713765,
      "perigee_km": 429.84788494429995,
      "latitude_deg": -6.513872951020966e-05,
      "longitude_deg": 165.66146199184936,
      "height_km": 441.9916665109647,
      "semi_major_axis_km": 6813.775231135719,
      "eccentricity": 0.0008498,
      "inclination_deg": 97.5457,
      "raan_deg": 234.6023,
      "arg_perigee_deg": 124.1248,
      "mean_anomaly_deg": 236.0806,
      "mean_motion_rev_day": 15.43551262
    },
    {
      "epoch": "2026-04-02T19:55:58.230048Z",
      "apogee_km": 441.2185883129141,
      "perigee_km": 429.63280630241206,
      "latitude_deg": -3.701545579877934e-05,
      "longitude_deg": 105.64561098893073,
      "height_km": 441.44509045830495,
      "semi_major_axis_km": 6813.562697307663,
      "eccentricity": 0.0008502,
      "inclination_deg": 97.5462,
      "raan_deg": 235.8118,
      "arg_perigee_deg": 120.2132,
      "mean_anomaly_deg": 239.9958,
      "mean_motion_rev_day": 15.43623484
    },
    {
      "epoch": "2026-04-02T21:29:19.085856Z",
      "apogee_km": 441.2056519564667,
      "perigee_km": 429.62030038998,
      "latitude_deg": -3.335081474543876e-05,
      "longitude_deg": 82.31211719185586,
      "height_km": 441.41172132228786,
      "semi_major_axis_km": 6813.549976173223,
      "eccentricity": 0.00085017,
      "inclination_deg": 97.5463,
      "raan_deg": 235.8791,
      "arg_perigee_deg": 119.9789,
      "mean_anomaly_deg": 240.2303,
      "mean_motion_rev_day": 15.43627807
    },
    {
      "epoch": "2026-04-03T20:49:30.279648Z",
      "apogee_km": 440.9956126413317,
      "perigee_km": 429.48236989128964,
      "latitude_deg": -8.295609375380415e-06,
      "longitude_deg": 92.31517945154604,
      "height_km": 440.96758545326924,
      "semi_major_axis_km": 6813.375991266311,
      "eccentricity": 0.0008449,
      "inclination_deg": 97.5467,
      "raan_deg": 236.8872,
      "arg_perigee_deg": 117.126,
      "mean_anomaly_deg": 243.085,
      "mean_motion_rev_day": 15.43686934
    },
    {
      "epoch": "2026-04-04T20:09:38.153088Z",
      "apogee_km": 440.8289936856363,
      "perigee_km": 429.33645465490645,
      "latitude_deg": 3.248471002204532e-05,
      "longitude_deg": 102.3320115011928,
      "height_km": 440.5174101651619,
      "semi_major_axis_km": 6813.219724170272,
      "eccentricity": 0.0008434,
      "inclination_deg": 97.5471,
      "raan_deg": 237.8952,
      "arg_perigee_deg": 113.9355,
      "mean_anomaly_deg": 246.2777,
      "mean_motion_rev_day": 15.43740043
    },
    {
      "epoch": "2026-04-05T13:16:22.174752Z",
      "apogee_km": 440.69958961757584,
      "perigee_km": 429.24552609110196,
      "latitude_deg": -1.4345821005384919e-05,
      "longitude_deg": -154.3147813131217,
      "height_km": 440.16453827506336,
      "semi_major_axis_km": 6813.109557854339,
      "eccentricity": 0.00084059,
      "inclination_deg": 97.5472,
      "raan_deg": 238.6346,
      "arg_perigee_deg": 111.3918,
      "mean_anomaly_deg": 248.8227,
      "mean_motion_rev_day": 15.43777486
    },
    {
      "epoch": "2026-04-05T21:03:03.566304Z",
      "apogee_km": 440.67031802574184,
      "perigee_km": 429.1862152123276,
      "latitude_deg": 3.373716141787089e-05,
      "longitude_deg": 89.02940911328865,
      "height_km": 440.04520568682767,
      "semi_major_axis_km": 6813.065266619034,
      "eccentricity": 0.0008428,
      "inclination_deg": 97.5473,
      "raan_deg": 238.9707,
      "arg_perigee_deg": 110.5333,
      "mean_anomaly_deg": 249.682,
      "mean_motion_rev_day": 15.4379254
    },
    {
      "epoch": "2026-04-06T06:23:04.878816Z",
      "apogee_km": 440.618992092639,
      "perigee_km": 429.1375624870443,
      "latitude_deg": -6.951192478843503e-05,
      "longitude_deg": -50.955768315875176,
      "height_km": 439.8579354251002,
      "semi_major_axis_km": 6813.015277289841,
      "eccentricity": 0.00084261,
      "inclination_deg": 97.5474,
      "raan_deg": 239.3743,
      "arg_perigee_deg": 109.0837,
      "mean_anomaly_deg": 251.1323,
      "mean_motion_rev_day": 15.43809531
    },
    {
      "epoch": "2026-04-07T13:29:46.305600Z",
      "apogee_km": 440.43638004013883,
      "perigee_km": 428.9777213743737,
      "latitude_deg": 1.3720714424883602e-05,
      "longitude_deg": -157.56169856185656,
      "height_km": 439.27109150169343,
      "semi_major_axis_km": 6812.844050707256,
      "eccentricity": 0.00084096,
      "inclination_deg": 97.5475,
      "raan_deg": 240.7187,
      "arg_perigee_deg": 104.7818,
      "mean_anomaly_deg": 255.4362,
      "mean_motion_rev_day": 15.43867732
    },
    {
      "epoch": "2026-04-07T19:43:06.168288Z",
      "apogee_km": 440.42187848859703,
      "perigee_km": 428.9477240109318,
      "latitude_deg": 3.960722628699012e-06,
      "longitude_deg": 109.11900474386249,
      "height_km": 439.16073926162244,
      "semi_major_axis_km": 6812.821801249764,
      "eccentricity": 0.0008421,
      "inclination_deg": 97.5475,
      "raan_deg": 240.9877,
      "arg_perigee_deg": 103.8546,
      "mean_anomaly_deg": 256.3639,
      "mean_motion_rev_day": 15.43875295
    },
    {
      "epoch": "2026-04-08T15:56:24.663840Z",
      "apogee_km": 440.3262253710882,
      "perigee_km": 428.8616255151328,
      "latitude_deg": 3.615361828366701e-05,
      "longitude_deg": 165.83555313449745,
      "height_km": 438.814302414153,
      "semi_major_axis_km": 6812.73092544311,
      "eccentricity": 0.00084141,
      "inclination_deg": 97.5475,
      "raan_deg": 241.8618,
      "arg_perigee_deg": 101.2514,
      "mean_anomaly_deg": 258.968,
      "mean_motion_rev_day": 15.43906186
    },
    {
      "epoch": "2026-04-09T19:56:20.228352Z",
      "apogee_km": 440.18777124953976,
      "perigee_km": 428.758936120199,
      "latitude_deg": 3.2550241135040984e-06,
      "longitude_deg": 105.91466667598529,
      "height_km": 438.3151853293587,
      "semi_major_axis_km": 6812.61035368487,
      "eccentricity": 0.0008388,
      "inclination_deg": 97.5474,
      "raan_deg": 243.0723,
      "arg_perigee_deg": 97.4415,
      "mean_anomaly_deg": 262.7786,
      "mean_motion_rev_day": 15.43947173
    }
  ]
}